{"type":"FeatureCollection","crs":"EPSG:3116","features":[{"type":"Feature","properties":{"zona":"AMAZ","nombre":"Amazonía","etq_x":1167649.3,"etq_y":482124.8},"geometry":{"type":"Polygon","coordinates":[[[1521496.442810476,368134.41841261636],[1517749.5464546282,355579.9570487888],[1521434.605140645,340316.3052059843],[1514786.71241384,326339.1994366591],[1458853.8771959043,22621.465852269903],[1421664.6888537502,68019.3373513238],[1413800.5166398345,70459.0401522005],[1395941.9722943795,61815.88677429489],[1389003.0840049458,68955.70948036062],[1384655.514888646,65991.20812110475],[1373912.0024712374,71236.93258941814],[1445498.7312341472,182463.32134635933],[1444788.1441300649,197462.5357579348],[1438679.1469221127,192086.3147369722],[1435377.3096975219,199546.50834162405],[1429388.2061834855,198590.5845590341],[1426339.2069211022,208937.8114086024],[1414432.6334768117,207197.8616898287],[1420089.5785464607,214559.9209297879],[1405591.4125631747,212095.36001916078],[1401272.7814267534,219867.4331854242],[1397177.5255331025,217407.40725306224],[1390308.2175960182,223847.8319942708],[1387258.502522829,223486.71812249837],[1391708.1084941453,217897.05442000378],[1383463.6147729484,217633.72142916988],[1383989.4625017713,226372.6065422328],[1378397.39757559,225320.1908698982],[1379964.226279458,230902.04972956888],[1361140.2187546124,237626.54555495363],[1356142.540016727,245739.60714939237],[1349001.1575090075,242012.75953656284],[1342404.9824634586,247020.63795384194],[1343156.5126353959,236345.96366487525],[1337353.425011293,240973.81707166217],[1327700.902538249,238670.28045047936],[1328120.381214319,232807.4760568639],[1324473.328026048,233470.12198353687],[1322833.6678680903,228014.01345164515],[1316633.1552228397,233056.13695336983],[1311170.9378553824,227240.64630112774],[1309463.0688216107,233128.5697417023],[1298660.5570241066,224932.53064695222],[1298830.2210622765,231062.5631789905],[1292060.2318566586,239391.3995293444],[1287344.6121268906,239819.09925099835],[1287185.8748341717,230992.21268298873],[1284554.5255659535,242822.37301370653],[1269849.2248996696,248293.08276655432],[1262208.2090697894,244870.75837688823],[1260719.6955070817,254829.34387367265],[1253795.89641338,247774.86663746787],[1250193.2434615286,249711.05156243953],[1243697.9068207846,235692.63456581102],[1237884.5896336671,235484.40327144868],[1239755.5834867002,228337.31062607362],[1226121.383342199,233330.13801713847],[1213597.5258590067,217392.90886397904],[1212039.5780973448,223309.83200583758],[1190089.306405762,216226.21543731878],[1185706.961370224,224708.82891637157],[1181196.6807170615,222555.1156477417],[1160439.6323439812,230894.31869874033],[1155314.1410121955,220560.62826895143],[1151928.6489476226,227814.95436634985],[1148271.4242463477,223255.19931423862],[1144647.4140173385,227944.28358197678],[1127528.1899111494,220008.85786209826],[1125131.9454218037,233303.0657963351],[1119534.5394248744,230727.65845771576],[1116215.6063299235,235889.75824363786],[1113385.4653745505,230656.40826306213],[1106551.6511262585,234398.04924416868],[1101476.3522401701,244407.8308394187],[1101167.429577942,249992.97001371614],[1105301.6524776095,250314.32559384068],[1112164.4667045332,260269.820608865],[1107238.256230385,262644.386414964],[1107842.3687108394,283210.70304352103],[1102934.8067394018,286154.3254850012],[1103620.6017727396,292108.46867177775],[1095662.8792904117,298396.39978067996],[1093692.5986908332,292420.3442203696],[1086519.862693448,295205.61309710855],[1084828.2265482896,289673.0646590338],[1060745.917579582,302887.2771039584],[1069020.3696924357,317564.17944560386],[1065340.7637010696,318066.8627002811],[1065283.6686050068,327707.79710642726],[1055378.5461608565,333835.8797272963],[1058440.306980263,335084.0739441775],[1056621.6209998832,345610.67801989836],[1051911.1485180797,345944.87543902325],[1050984.4644446943,352021.3304906301],[1039016.5202204929,353727.57022891694],[1037125.7830864245,359022.51460455544],[1034201.8786437704,352266.93836072565],[1024057.4903792397,355835.64699274],[1018412.739264074,368314.9598034137],[1013282.7532244172,366691.4151527337],[1012545.0092215147,372151.1690558749],[1007952.3841833316,370259.41841408634],[1006615.1755855514,380564.6126492374],[1001399.1196670885,375269.71521877067],[978287.5464941498,383536.3201200174],[977535.546116701,392353.7794493784],[972957.9570142585,394380.1734672502],[978545.9583571794,394391.6017988608],[981535.9469417951,401011.737415176],[977519.8473512462,400190.6977670081],[977563.7797152849,405628.3673253616],[973842.6503853662,404042.1581438908],[973482.932314977,408368.36851602234],[966871.4342945009,411271.89644106175],[971017.5470677845,416852.31704444275],[967007.0457966409,419480.8631533582],[964958.7847937137,431845.83093962027],[961825.665831205,429853.45057871984],[961612.8349460455,436552.91860468977],[948834.6876592387,441056.1972577529],[940937.9226104241,452838.5513273048],[935116.317449926,450357.26224047644],[933026.3054245882,455153.8800265393],[927544.6697934559,453861.7649525326],[920295.6250566985,470889.6351389589],[910299.8220713246,464864.422050153],[879252.2516348722,486821.86015084904],[873779.4862099927,486321.98272435006],[866862.5035227754,477927.52176644525],[833333.4681911096,488827.5815336083],[826781.7855593894,496976.6979181678],[807487.4901924733,497391.7529833737],[790492.5832632933,518131.0346379731],[785345.9318262788,519197.33904770174],[787911.7218660284,520125.5121065917],[785541.5860037985,524569.9764373611],[778391.4582669394,528939.5343732971],[773323.9900415089,526718.392225824],[771145.4848018119,532834.6674344065],[760730.9827290445,533464.7436084927],[754951.4084425643,540133.2638018583],[747636.3323246733,533954.3102399657],[740129.9648341928,533778.4195818456],[738981.8773461457,517787.72428295645],[726592.7500048326,520394.2078864688],[720630.0439163959,515969.02721712715],[704294.6872763203,523715.8553386433],[701717.101415418,519246.96286856127],[691735.4591395573,518221.528751822],[673785.965465628,524357.809607618],[666047.8534985648,523247.29475977545],[661904.0389740823,532995.8961177804],[664709.2530154443,535676.3491786122],[661458.7238927663,557426.7554730548],[653725.320420082,561642.6617373986],[658956.3734573786,582554.7077593035],[663222.5582790377,584114.1026522616],[661354.2830876748,591487.9588164985],[671613.9886173566,603858.1092595861],[664493.063616293,610378.5452652699],[665049.980268747,622508.0728084181],[660978.4392019517,626353.8614108051],[677406.8033302343,638090.2993990683],[683212.7576692265,632896.9352849489],[687200.1296210187,643658.778436258],[711705.6422726305,654177.8800810458],[722039.5563700799,645357.3434078421],[725142.931893893,606661.3276923331],[738793.6710880162,598034.7283655085],[759731.6847851695,598501.2205585623],[766662.7505717436,605687.3879213245],[777084.9325834657,604739.5056659088],[772265.0222963223,613462.9893346436],[757142.0491892672,616123.1590376247],[752376.7124479685,621900.0712294087],[752309.932834752,628711.1820044466],[763420.660797577,642100.0137454032],[769461.6547613267,662756.354604325],[767295.4716109635,667391.660545001],[772631.7855892733,663873.2636374336],[780710.2237106266,665676.1758311815],[796366.5336648154,681475.4539536848],[815086.9818339115,689243.402748181],[838215.0428950904,726105.6836677021],[848113.7930730386,729874.8179523556],[854547.9895069494,747806.8038162753],[863228.4330955655,752946.5341010231],[871985.0309380702,769888.6390135835],[877771.9916047181,770117.0787320347],[882467.7059083481,779203.5458969491],[881010.3314804651,792772.7220580623],[890264.1011298618,795422.568221061],[904782.0030867154,813210.6029777142],[920261.3974654686,816131.5099289306],[923483.0778703241,809897.3395632879],[933357.3284699462,811361.7418504526],[939968.0622536163,795671.7208844033],[937625.0173382664,790818.2670774265],[942980.5484568358,785881.1484970755],[932353.1718560884,773287.2925286068],[936244.2948475307,767722.5614150324],[927792.6056863386,752241.7356566845],[927123.1631000122,743120.6021128257],[933357.3359380728,744417.6446910608],[935491.1743179479,736384.3588839227],[942980.5438762768,734543.3920157673],[940820.0013269696,720755.706132953],[945800.000310473,696250.7499589832],[978529.2876552668,685664.5362668801],[984661.1952132981,687116.3614425289],[985712.4240294764,681369.9607439215],[996128.6928613973,679317.5050463474],[998553.2610187242,673383.1683840243],[1008672.126184593,675087.7403990142],[1010691.2652760037,668884.1328743605],[1014848.682422776,673708.817585593],[1024394.3252568396,675134.9306671913],[1046595.971959804,670296.8985066009],[1046859.1910188851,745543.6477315669],[1054318.8954594778,756026.885338455],[1056261.705586505,752195.5199216661],[1061147.6284490675,755789.6804485616],[1062998.3303750781,749781.5158449288],[1064199.0128122799,752623.7233311831],[1070146.4832831156,750786.9785404997],[1070704.7416066658,755797.3491368787],[1071919.257261858,748842.9261314054],[1073755.4648010514,752339.2249631595],[1077848.6039506202,748999.7300547493],[1079628.6969151031,753669.3040820957],[1080060.8036847685,748853.3443537727],[1082968.7675827702,752802.6694117212],[1092798.1112419486,751330.7090507904],[1090042.237178198,754961.4285358037],[1095748.0415086802,757802.1703849265],[1101191.0411285716,757191.4382543802],[1101823.0784674527,753337.662607129],[1106033.0015856298,758527.1875723774],[1107698.0425006344,755084.2036277534],[1112569.1409651232,760337.7451842267],[1116144.1219161705,758492.8347161349],[1123784.0855126316,762632.6374284179],[1123934.0111244647,766027.9910363723],[1127219.8329901143,764342.6612884701],[1124866.1554875928,770144.6851336915],[1139720.5113286457,780637.8671384032],[1148156.9069812007,775904.6690591328],[1155119.8886873745,781858.3444884067],[1158653.7710369,776222.2461807713],[1162623.9612064413,782208.3250868546],[1165602.491526223,777462.8199289991],[1171540.9669476934,790714.2384053257],[1178740.0600083428,789217.4391163912],[1179153.563644037,794187.6223871396],[1185902.6591783527,793266.9064428676],[1195419.6770739725,801436.9897796607],[1200350.1826441584,798978.5283369524],[1202309.026445548,804197.9322216463],[1209727.5307799005,798499.9431331812],[1208342.5929370648,808534.0128190038],[1215992.5201581554,811353.5401881908],[1222227.3751659268,804021.9735121115],[1232964.9210709068,801688.3729139409],[1250071.1982826984,805666.5594056409],[1250885.7959504528,809102.2837407694],[1247580.8860824332,809399.36771668],[1250654.2383808233,810297.101376723],[1254667.8223927673,809052.8672145437],[1255461.9359759171,803533.083737943],[1257354.418152293,812321.6899131679],[1264301.3328649597,805960.6461248867],[1268917.0111089055,809385.7738500107],[1267418.4435631158,804335.2093516361],[1270342.5878693655,803696.1106895506],[1278333.9511433416,806678.0429491984],[1277523.109166001,809753.15462106],[1289974.4341601117,807531.6383111004],[1290643.1142492746,812616.92879727],[1299196.6381872143,806952.7558785663],[1300371.0037981155,811738.2873225629],[1303903.2236045217,808377.834817675],[1306837.90189913,815559.2101462861],[1310283.045123877,809294.7687393281],[1317363.612392535,808989.5397359723],[1321728.7553410078,813309.4338171696],[1325979.8236391551,809931.9807367123],[1327156.4685002605,813105.1432368062],[1343604.8588376981,804947.1252240491],[1346955.2277493437,806503.5226916414],[1347975.1605713647,800382.8554876295],[1349855.8170113692,808277.1986694892],[1357077.9202730246,799125.5729744356],[1362543.560117893,803289.8698294382],[1363448.938596986,797376.8897421402],[1373389.7476298094,801193.5373519452],[1374602.565427292,794910.4385103238],[1382411.960250243,802102.8438976734],[1380415.0903810887,808155.6647743335],[1384422.2691197384,801235.0419880116],[1388536.8108899524,806508.649891244],[1398336.706523906,800421.8855708677],[1398786.4801632143,803434.1996842887],[1414120.3440693845,807899.5025073576],[1414317.8460286935,814758.4799195845],[1422716.621527618,816876.4607684084],[1420029.5281310189,827961.9754671016],[1425351.527744234,829177.5335795478],[1417859.282972511,833320.7661209438],[1422283.2176329026,834210.2893777161],[1426061.151494752,843808.896108913],[1430556.9712557069,843331.7629525581],[1429719.8787643034,847260.7914414811],[1435200.6567806434,844280.1138812923],[1434049.0978873868,850354.6294031232],[1439209.095198914,846328.1695645056],[1436021.246631162,854655.3518397148],[1441289.618015061,857126.6651264956],[1434324.6029331319,863006.3803192215],[1439502.8557579156,868649.5355108144],[1450066.1201809251,870678.3791360783],[1452985.0316928343,865542.5475729362],[1459449.0071621535,867906.6335982825],[1458394.3041100102,875216.196671088],[1467947.7988889639,872987.7603201148],[1465203.2375661535,883709.4645696442],[1473922.233891676,877237.038411924],[1470883.3064806163,885164.7663907444],[1473479.5236146585,886221.6011905066],[1475819.395896121,880665.6466759708],[1477588.9277424994,886810.640457728],[1485209.8612864935,885079.3953169965],[1482431.9307081879,890044.3407531298],[1487203.1855200094,884252.7564636267],[1491291.0045169634,889478.7729496207],[1494858.273304124,887595.7977236159],[1497081.669175813,890647.1034758774],[1499009.884753536,887558.9795240964],[1499004.8471948828,900138.776990752],[1509907.8019848235,896678.4909994995],[1514254.883476933,903295.6054632989],[1518069.9325587978,898184.0088415161],[1523541.4218179008,898383.7169590226],[1530885.0635600127,904166.0153014122],[1532063.2879737923,896132.7792596165],[1533288.6092703082,905164.7462045543],[1538749.69810696,899472.5447542187],[1541755.9221476272,902720.9432839089],[1545908.3640090197,899416.6159545155],[1544248.609502411,894901.3470384245],[1551667.8233408432,899809.7422699308],[1558392.131223807,895492.5229020442],[1565443.9405948767,901796.9206563557],[1571459.3510057577,900568.5348952516],[1572090.5963323007,907247.9841211451],[1573448.3391008233,900979.4618418269],[1580047.95565758,903309.5435658335],[1583646.6574600702,899136.8094540164],[1581340.7381486879,906941.3656190068],[1587442.8588046688,904866.3742815402],[1591786.9584396053,911703.1139513834],[1603924.413469828,909495.1809682674],[1601457.2833871925,915016.3915066927],[1614880.0196802388,909792.4588076929],[1612409.4112612423,915694.8273158357],[1619505.2541915812,911534.7769310938],[1618995.0954100431,916365.2947808848],[1626951.7591442596,918415.6970913816],[1626746.1900928747,923400.6221916373],[1632098.5064213881,919534.7662935628],[1627435.8784533988,926259.8990293655],[1637522.6695316294,927793.9702428725],[1637929.338285126,935467.0123963087],[1652880.6291099715,932089.0240589317],[1653294.244024803,935899.3732428777],[1661187.84225602,936260.9161032723],[1661633.4565996977,930285.6518304383],[1667057.936575361,934371.200254787],[1667603.7063043672,929483.7405796471],[1672448.0707297213,937733.4557604726],[1673318.7935961098,934045.5704594187],[1683512.1530681453,932349.7527859224],[1685945.812919804,926314.031988167],[1708573.4042878286,942099.9999216689],[1717196.1366400816,913029.0324446573],[1720309.868371097,909331.7702110657],[1732096.231830799,911126.3330846425],[1743495.2385023972,879208.7320852722],[1750490.4470176522,876032.293809239],[1753721.9708704439,867911.7642765201],[1745772.2774949977,853119.9082883297],[1739936.6940663694,853407.7191570498],[1692148.4559537466,810583.5273942694],[1692219.736321441,802042.1359414308],[1704906.8343435512,807462.180020274],[1715523.642130192,802879.4945102433],[1720142.9144361732,804653.9117059789],[1725957.4215695236,787473.5152710723],[1734139.4755358263,788209.43963798],[1768166.1990086804,753553.8179124816],[1764400.9956248421,742835.9072273488],[1771230.4221350257,729344.1120125785],[1777239.3013314218,727863.8755190403],[1775630.292452543,711991.0679402914],[1782121.2748688082,705743.696687504],[1798684.1969980276,662395.414377176],[1799621.2730819776,650427.0308238746],[1805936.0555179673,644447.5132705163],[1803013.6107912478,635169.2023733812],[1806399.395328449,628754.1344773083],[1779996.1445050098,621784.7163264493],[1774066.7607744504,638811.4061487563],[1780667.7385835254,646120.7480156034],[1771700.2898519007,678351.0326472983],[1772239.0641384767,695781.4789813948],[1763888.5786063583,696837.5614986348],[1752356.8215595598,707962.6247911523],[1749847.2738985894,715044.3224373787],[1752761.4647784126,721582.3841194687],[1744763.8231951187,740014.207205781],[1733844.3330730894,732550.9552922928],[1727654.2838718002,719676.3378437241],[1707387.2853781926,717459.7360188415],[1698254.9858578327,711204.61059239],[1688495.8442665916,693266.865598294],[1667336.540803653,702767.5257121352],[1661293.6604654787,711729.5594798037],[1657248.7559229676,711510.9517219086],[1655492.420787327,717961.8524671906],[1645536.7678081011,695257.1229748866],[1652098.723385191,695094.4423275525],[1650703.5717285022,688560.6595811506],[1656010.14806701,689606.4045442685],[1659112.118622622,684029.7482853145],[1522039.0643562546,683635.1898432933],[1506000.859976741,688871.3811222992],[1495533.0902907886,682872.0057724228],[1482532.9584224345,683563.0366959353],[1478377.1986176884,679438.4691743936],[1472051.1902861614,682356.8765032969],[1471771.6305337886,610709.6353204822],[1486612.7590513574,615770.724664125],[1487263.1635793056,610991.0478660412],[1497749.7457781627,613579.3295846254],[1516786.363312495,610904.6015918868],[1518612.6542370028,607441.8574984107],[1530088.26780171,612562.8838914563],[1538510.9947735602,609014.6563222029],[1543793.8583499454,602718.0922999851],[1541669.7532869768,599686.3768037343],[1547504.375085691,596265.9923183596],[1544843.0932084802,593119.21345871],[1550736.8371931985,588555.1965107407],[1547346.4638716679,585293.2565690246],[1549293.5848686001,576951.6471986177],[1544694.1444178005,573955.5920496318],[1553014.8697523652,563340.2454816608],[1544230.2378621951,563884.1772838668],[1543620.8824077277,559010.2529196069],[1532998.25689164,558777.6015336319],[1533630.3240220903,563891.0726173194],[1526196.5566560265,560036.5004388993],[1512301.2344871613,573388.9397635234],[1499247.2009528643,564328.6488228182],[1498326.4225533323,559789.008892806],[1490973.8508795155,565806.5181588985],[1476288.178163482,555151.9657062683],[1449020.3120908663,554158.6923973126],[1449465.5894745705,470708.23154698755],[1463153.8653547217,455654.12714241946],[1471628.9727877716,454365.74055952474],[1498051.9427273143,436222.10528090305],[1498586.549928108,425738.7358379755],[1503181.6949120392,421119.2135414309],[1496122.2470418804,408953.30427569745],[1507171.1334663988,395488.9660163389],[1506920.1154125803,389145.5868468145],[1519124.267237477,381015.7559680382],[1516183.9073558603,378234.50563990267],[1521496.442810476,368134.41841261636]]]}},{"type":"Feature","properties":{"zona":"AND","nombre":"Andina","etq_x":972171.0,"etq_y":1092401.9},"geometry":{"type":"MultiPolygon","coordinates":[[[[971225.7635131954,914536.9508686059],[938116.3345905595,875386.543606747],[940210.3035567767,859567.5726260822],[934118.7664336832,845709.3106095166],[890264.1011298618,795422.568221061],[881010.3314804651,792772.7220580623],[882467.7059083481,779203.5458969491],[877771.9916047181,770117.0787320347],[871985.0309380702,769888.6390135835],[863228.4330955655,752946.5341010231],[854547.9895069494,747806.8038162753],[848113.7930730386,729874.8179523556],[838215.0428950904,726105.6836677021],[815086.9818339115,689243.402748181],[797058.9028354302,681923.9467417176],[782596.8737720109,666814.8343818297],[772631.7855892733,663873.2636374336],[763922.871459891,666605.5643845065],[761868.4253908126,676023.1204160005],[743321.4780994891,675980.6289970936],[744401.8098770422,685365.1984238881],[738822.7254502014,682463.851163802],[737851.219174786,690089.5336165614],[720813.0364286581,698972.5369462348],[716570.3050657643,710242.2523575939],[721995.0547219231,714515.657847368],[720389.7846096447,724035.5969673716],[724201.8855590444,728330.1182226684],[734142.4139772644,724295.1391761061],[738001.9907563187,726384.3910966958],[737722.7892814155,733856.5644857096],[744513.7776138934,743981.2032186127],[755107.8567653577,743604.1798042178],[762831.8858303048,735091.910363365],[769036.7272616551,735075.3861017907],[772635.2189969111,737898.242162769],[769800.5640382209,745527.5647664536],[774629.3433781476,758050.691660175],[781916.516970281,757468.7011640072],[788606.2441277192,768696.9989834812],[798851.4622794186,760405.837892534],[806838.196112343,766547.5592877442],[804176.2063719648,775548.3939985062],[813626.6912024596,795196.6404148384],[802088.8782970952,799976.5611560575],[784027.8193642738,815435.310818475],[783742.271246256,824064.7731656755],[774190.1698013828,835231.3417495409],[778092.9385045504,837353.4210820545],[776259.8798372702,845935.6384946217],[781906.3716385092,851437.9438629644],[779704.3755717396,862839.7638378204],[788010.9750958954,885648.4022011906],[787075.285639516,894215.1667679372],[815524.9544622749,940185.8214183531],[804286.0529365216,945538.4898880434],[809980.6681274357,973416.6450142469],[807461.6640546627,978810.5737999094],[798191.8125161459,980404.6133704511],[801577.9940930307,984549.3271967744],[801701.1170339731,1002359.640032455],[806008.6790941944,1007676.7490669547],[819412.467580551,1006825.2389199845],[818383.7951271683,1013126.2502443354],[802604.6601981489,1014772.48444446],[803263.0461918085,1020443.7115796829],[794630.4102551237,1019097.6915108266],[797717.6514751101,1028808.6769997474],[787960.709396915,1030948.0584735596],[781250.686360653,1045864.4733963162],[776082.8431530951,1048817.9995255815],[780031.8861166236,1059388.3640833627],[772487.189541402,1064925.5524204266],[763413.0906582027,1083470.7860319011],[766543.5842824121,1090524.3195635458],[777264.5362801352,1094279.5429283315],[778651.8091382091,1105471.0184642987],[786229.8335753254,1108675.5120502934],[786401.3076404724,1113779.1594895697],[777358.736199565,1121192.8636503671],[779688.1038252681,1128415.3852313564],[776060.4393976163,1138183.6669411303],[779721.2278897493,1153202.4086531738],[774745.1604498245,1157966.3075455572],[768801.4307882155,1156456.6506151247],[760703.139299785,1178919.320271302],[740676.5137851553,1174134.9256740431],[722563.1173377594,1177285.549598349],[707649.5505389799,1175009.3008762815],[699765.2420925973,1191606.0840424905],[702511.3521629419,1199108.290480327],[699238.9719413589,1202617.8717084222],[702862.5830070591,1203941.4921061604],[699256.1930891937,1205226.9665282168],[702377.0591969542,1208855.4764681812],[698856.9063120983,1212141.8950462304],[696528.9771344382,1209961.0764367427],[692966.6279356955,1218136.2751293841],[688516.4805607734,1218879.9509608303],[692346.6736559551,1224577.568394148],[686667.5409708443,1225829.5887177165],[687803.1206874426,1230253.4161113983],[684661.5853342768,1227945.3964753468],[680726.0543530048,1231555.115784986],[684127.2556864598,1234813.1768077095],[680028.5584912619,1246008.0880008517],[690355.0479094505,1250339.8833945068],[696855.2455124534,1248443.3449006833],[695588.8123624795,1250987.695919185],[699964.5732691905,1252051.9986759115],[695234.9981658055,1266639.2080032332],[712788.7466674692,1269712.0687477416],[724280.9536503117,1264159.4652122546],[731427.9833483722,1281877.248546848],[734214.1479840949,1281257.9743977827],[728778.6798332132,1295095.6886109237],[708467.9463298388,1307341.9907897313],[696162.0408595236,1324433.173415189],[678814.4220955798,1336782.2368919323],[663596.5878904667,1358930.8487410897],[674152.2049286222,1364322.5796547304],[678322.8114300426,1380171.2493479636],[682723.6926546013,1382171.6906678367],[679277.3430953147,1389253.6756454087],[683323.0051657286,1396417.113086827],[681512.4276652724,1398904.6672990867],[680230.3483576721,1403030.5353669603],[680517.5467599747,1405950.057438967],[682014.0107323283,1405929.475265418],[683368.9546263416,1405561.6434598682],[684190.6410813767,1405048.0385882491],[681364.7949003903,1404529.7203666437],[682590.1483690406,1397965.6046545329],[685796.9911525424,1400499.4463924028],[684461.6080932948,1397461.7174512974],[685829.4323579555,1397284.388655621],[687029.3869105818,1397570.4359375024],[687625.4607633629,1397336.1079282563],[683260.735280225,1393563.6834611204],[685329.1464664899,1387625.3406943567],[689598.2440720007,1392125.9560329118],[696129.0032898297,1392916.4359438282],[696092.9933441277,1392186.6794387568],[697255.7500602162,1392679.2376253027],[698918.1621553814,1391856.237404722],[699103.8181180845,1391654.4661738265],[694006.4085123416,1390905.4225853756],[696569.5913948601,1387468.2257040092],[691798.8109038495,1385151.2000356722],[695467.5802805731,1383879.6470888015],[696504.876937554,1382826.6402973242],[691477.1534833245,1383239.6326234685],[695161.5291300364,1379504.27776814],[686077.347377307,1380518.9254805024],[686125.986297397,1368446.8988417196],[705393.8756896477,1368580.2468276038],[709146.6272363182,1384271.8746332494],[707702.1959439898,1387479.6788679785],[706084.8559567204,1384566.4510720435],[702830.5041295547,1406748.9526884987],[704535.1556190999,1421418.387698085],[697275.4627749119,1432427.1531339062],[684951.6906571498,1438591.4406592941],[690949.4161429567,1446363.777053102],[716893.1138180357,1451612.9129314513],[719056.9057047588,1458252.23831256],[731786.089390219,1463599.9044422058],[742979.6841631017,1475633.3436507978],[746113.1076442277,1464672.479872905],[742575.6012504167,1460757.651571286],[750769.0914522007,1448596.9063864448],[757159.2583385006,1448862.2872918695],[763784.2593349322,1440479.2719134458],[767271.362289867,1421311.919978956],[752778.4780182287,1407694.36931645],[742166.8240958215,1384969.7000636556],[741652.4491724304,1367230.7899288302],[733207.394846985,1349573.0077692524],[731497.9960835201,1331156.8924994916],[745302.7546424288,1309870.3042709094],[805277.9105599022,1306380.6401948063],[814437.9790989665,1333115.1468523988],[831684.9533812708,1330500.3903027575],[836741.916977465,1342880.5799524644],[843950.5714982641,1346221.5651499233],[848154.037821178,1358264.1383701803],[859578.0560025345,1363749.2081388647],[861210.7917934824,1371078.5226751422],[873597.952193474,1383234.7880457267],[905900.9908908485,1384751.1229867162],[912062.3185789089,1398395.7110460638],[917632.558870442,1398523.4216208667],[919055.5788807935,1392382.282146581],[942059.4315601892,1380554.2803582947],[949166.1921448596,1370619.7421610337],[950663.7718742437,1352313.5131566492],[957641.5788757931,1345904.011492556],[954370.5288836214,1339092.145975662],[946523.960072942,1337180.3443629337],[942528.0248085068,1316832.3337554513],[954575.2098822198,1303798.3613288666],[962417.2210172819,1308092.085868391],[961984.9051263079,1314836.3541294488],[967527.6247619061,1318791.7677664051],[971129.9603039959,1311990.7881133263],[964299.6288216643,1303351.642754038],[963567.5726918058,1287030.188823516],[969706.8778433471,1274942.8898992953],[969386.5118875048,1267038.83885142],[981126.4403721418,1266135.1484138086],[1018120.9181281417,1298763.4727410907],[1017869.0358462833,1319734.322902382],[1025197.2965512894,1325337.1770521542],[1030761.9442956528,1337908.5547801687],[1023153.5387528933,1380942.2065606527],[1029978.8118886705,1390874.526799219],[1033333.5701298714,1392293.3460430312],[1039075.0251586053,1373076.956566402],[1044696.1265591905,1368518.329642639],[1035985.6382213525,1357025.5859914646],[1035804.6789787747,1348855.0004473822],[1054053.5310636873,1347860.640986776],[1065720.548636516,1340712.2732659748],[1080149.8423210166,1353848.6085408628],[1080166.085252136,1364730.6023566956],[1087970.7828560858,1369384.4268166404],[1088095.7733507925,1374911.735463799],[1078412.325357793,1377893.9484502124],[1077192.9799175556,1388160.6343613856],[1070753.2458260616,1392728.3945652794],[1080140.464392457,1413290.6594022743],[1080163.9308750485,1422286.4095495811],[1073053.4968582597,1427329.74927538],[1075376.8527061676,1418834.6140302063],[1068453.423118063,1414682.5164383443],[1060652.7512114025,1418825.0039521053],[1066306.301328855,1428250.319515125],[1054995.3380787005,1431756.0509329478],[1061689.3118516724,1434785.5406926493],[1061186.5998067006,1449205.359625136],[1072990.211825594,1461260.2860722756],[1069190.6506816705,1472779.5557956593],[1073742.565074445,1504910.0576908747],[1077950.6542833208,1504950.5141857383],[1080009.173956865,1510705.9179011022],[1080259.7872697008,1506278.2785803988],[1099019.455894124,1506736.9917113492],[1117224.6770830087,1519411.7805976032],[1124207.9545070806,1497348.1194920242],[1138018.8485023535,1502801.876482858],[1144138.476786675,1498956.2939416252],[1156581.5378347225,1444690.759257415],[1186138.3066267981,1415067.838088423],[1190554.3818725555,1377391.3470847956],[1183153.8783975085,1380538.0920400112],[1175312.3003946552,1370527.7176159457],[1180122.8484994108,1361022.6434508918],[1176793.1560272758,1320100.454896221],[1180864.674247514,1310764.963315613],[1207709.1102198856,1308755.171285733],[1212443.1944573931,1302443.9536559097],[1210271.021399483,1294147.5805985078],[1224324.2501761247,1270637.7401963521],[1235567.2067689686,1267557.5998126261],[1224130.2450452258,1240924.7257014085],[1218896.3972129428,1238176.0544266813],[1215773.9452010605,1212120.4483803434],[1200972.1045169518,1203308.2728115888],[1185605.5653720926,1185711.7238178917],[1183604.6229094758,1176005.2759576582],[1188610.5640896147,1172184.7264136067],[1189109.5961077178,1164483.7373868674],[1194858.3543698473,1164320.6370233046],[1189515.5958873953,1159644.9579940573],[1194188.195388341,1143057.8224652263],[1186619.6405890563,1136010.2821380063],[1201819.410507374,1132688.348101099],[1197013.6970590237,1121021.3960345695],[1201221.4958313303,1117429.2644255192],[1192080.289150215,1100992.909231036],[1183970.2228258748,1107645.3964123353],[1165962.1105457756,1083841.9501754942],[1152667.03977047,1075067.9471351348],[1141951.0335792475,1088501.4993320298],[1133009.135784555,1084529.2313719853],[1122423.8658502507,1061257.8511547586],[1130221.1090327397,1052372.9576447704],[1122561.4027104229,1042087.2605117279],[1117327.0715841001,1044914.0518413049],[1111734.5813513715,1026457.7066932702],[1114366.4523602226,1016564.8181274373],[1104476.152479775,957925.9051458552],[1097030.6100177793,964403.5452919154],[1080648.713761619,969622.3952547477],[1067673.6260553976,964881.8276036666],[1059301.935205217,967657.4227857281],[1052537.889737291,985124.0044474478],[1056624.5629762926,992174.6238513691],[1049459.41843561,995572.8725648362],[1029514.1661321688,979220.2914563412],[1037133.8721830271,956070.4523110362],[1029605.1564375767,956448.9117222724],[1011796.835486126,944808.744202803],[1005925.6957278935,945341.3545749687],[994340.7899685145,934128.0084051336],[984395.4881426989,934979.5613538276],[973182.4785457983,920676.9588624726],[975657.9246122789,914077.0205608505],[971225.7635131954,914536.9508686059]]],[[[687583.6873479463,1398478.8990563792],[687612.6285176566,1397489.777770619],[686595.4998549898,1397637.393588135],[685732.4318209507,1397356.5217335264],[685282.7594514915,1397595.641995072],[687583.6873479463,1398478.8990563792]]]]}},{"type":"Feature","properties":{"zona":"CAR","nombre":"Caribe","etq_x":971953.9,"etq_y":1570651.4},"geometry":{"type":"MultiPolygon","coordinates":[[[[912476.4221330255,1398598.585363532],[905900.9908908485,1384751.1229867162],[873597.952193474,1383234.7880457267],[861210.7917934824,1371078.5226751422],[859578.0560025345,1363749.2081388647],[848154.037821178,1358264.1383701803],[843950.5714982641,1346221.5651499233],[836741.916977465,1342880.5799524644],[831684.9533812708,1330500.3903027575],[814437.9790989665,1333115.1468523988],[805277.9105599022,1306380.6401948063],[745302.7546424288,1309870.3042709094],[732298.8484621668,1328549.9755596416],[733207.394846985,1349573.0077692524],[741652.4491724304,1367230.7899288302],[742166.8240958215,1384969.7000636556],[754906.1281622461,1411985.867090942],[767271.362289867,1421311.919978956],[763784.2593349322,1440479.2719134458],[757159.2583385006,1448862.2872918695],[750769.0914522007,1448596.9063864448],[742575.6012504167,1460757.651571286],[746113.1076442277,1464672.479872905],[742979.6841631017,1475633.3436507978],[759384.6958259887,1487427.157110464],[768051.6681118858,1500807.8177109277],[769919.8503474162,1513073.382648933],[776961.339312917,1517031.5858354028],[779752.3092772212,1524835.571768812],[792074.9625546298,1529843.6272842558],[794568.7496093881,1536604.1414385578],[810839.2549257557,1535263.0881149275],[806624.7726025032,1531519.593242338],[812603.0310024727,1530955.2682527306],[816877.5964886254,1533942.2571425154],[824741.6892741169,1532209.776065852],[832178.7734303647,1539588.7557973173],[835312.3688248014,1557723.4381314332],[830937.7716330522,1564452.1131180893],[821512.7710475603,1564791.0208931444],[830396.350162403,1576511.7675703564],[835865.1903757146,1595688.774822227],[835114.3413625595,1611390.6463858779],[839730.4857853216,1618665.732105602],[840244.4838775722,1617039.0134996753],[841865.9021151672,1617106.6031151442],[841474.645734428,1622425.8023510848],[838666.5089233357,1621903.602587034],[841666.7569474496,1624171.3469407102],[839654.9537805223,1624999.5998908877],[828964.1956315562,1617616.3147919208],[829079.7144725386,1618894.056820237],[825578.2251839767,1613315.9077267926],[821666.547578779,1613711.3070920177],[834664.5989677642,1622965.3488984331],[830752.0013882311,1625830.2840931518],[834927.6722333711,1626981.0475441443],[834665.5324150247,1630975.1523751887],[837003.9412386994,1626882.1652489982],[843822.0684476967,1631299.905675496],[843509.5673045448,1640466.5839092922],[838859.3793326489,1644707.5327747553],[839298.1321502029,1641162.3132008822],[836946.6824215214,1641875.8821541725],[838306.004726816,1645062.0567002045],[845205.9896685851,1651977.0903836708],[843046.873125847,1661337.8707643265],[855925.007708437,1673433.582481823],[868223.1961871795,1676262.6813331721],[870485.038256455,1686431.4254623128],[892417.8484344409,1696176.9848412517],[896633.8398557332,1704920.5397328017],[907794.335848388,1713401.5529075698],[915290.57310747,1714279.924584573],[915073.769451268,1720123.3416068708],[954108.5211327464,1706384.1466055552],[976590.5740548923,1707178.7562955248],[985094.8435570505,1716186.152032646],[982074.197691051,1732668.5637857672],[992657.2885725131,1745492.032031381],[1010709.1427260537,1745848.0466615583],[1031483.2017664785,1736584.8307472481],[1087355.8623904504,1739887.609069697],[1142599.19690243,1783606.5167370974],[1201516.9256148948,1807004.113097753],[1211099.0909715502,1831142.3378120323],[1206635.3005379252,1843543.233579285],[1230286.9925003645,1848263.0629094306],[1226029.3482641159,1840346.1471168494],[1227710.331771784,1836174.8155838186],[1233856.6071329087,1836412.7150819027],[1241172.1150726355,1843809.8884867332],[1237649.7831905577,1850426.7115538127],[1230916.2814067393,1849974.3637727248],[1245265.4195411848,1861034.9584705941],[1245493.9121768791,1854260.8917709556],[1252679.66921964,1856862.9724198044],[1251867.0861739197,1861905.3499568985],[1256004.2300797747,1865377.895913653],[1256297.5112702956,1860943.7986057943],[1258099.753819051,1861536.186078454],[1258483.6541835896,1859687.0691672494],[1259770.838830242,1859888.528251349],[1259119.3999701797,1863405.2820025985],[1266384.3016206995,1865759.6648237717],[1258668.7849324918,1866142.5055952086],[1260244.2492022177,1869240.1294376338],[1254711.9820738754,1865668.0542064395],[1261955.7745042103,1870632.0198050183],[1277638.4849933104,1868455.44764535],[1310118.8037344322,1853674.4003567372],[1322618.4893113335,1830108.4117106108],[1320450.0963944644,1820863.844356827],[1304634.939435439,1810188.9810988717],[1301589.355444236,1812471.4316397556],[1299601.653818785,1811671.8452032313],[1303754.3472792497,1810780.16191789],[1294241.7967553402,1799488.894480098],[1229707.2975012043,1780574.2865790273],[1199724.2171436676,1724356.0256108916],[1188799.779532956,1725528.5037755803],[1172630.0807894797,1718191.5241233497],[1174395.2523438316,1715238.2859647274],[1166576.9214849556,1702039.6491291241],[1156186.2958229904,1695256.5554997502],[1146889.25408348,1669998.744841229],[1129943.3472441046,1647981.1838768618],[1127789.8246761817,1610318.915761503],[1118276.9771621882,1589393.1443453976],[1124188.4406519034,1579872.3367919133],[1112241.4625014414,1562204.5364152044],[1108946.6669442072,1548700.4280592152],[1102462.4948632724,1547211.9703994794],[1077950.6542833208,1504950.5141857383],[1073250.1154444935,1504198.7502872865],[1069190.6506816705,1472779.5557956593],[1072990.211825594,1461260.2860722756],[1061186.5998067006,1449205.359625136],[1061689.3118516724,1434785.5406926493],[1054995.3380787005,1431756.0509329478],[1066306.301328855,1428250.319515125],[1060652.7512114025,1418825.0039521053],[1068453.423118063,1414682.5164383443],[1075376.8527061676,1418834.6140302063],[1073053.4968582597,1427329.74927538],[1080163.9308750485,1422286.4095495811],[1080140.464392457,1413290.6594022743],[1070753.2458260616,1392728.3945652794],[1077192.9799175556,1388160.6343613856],[1078412.325357793,1377893.9484502124],[1084686.0332587739,1378234.3251884459],[1088363.143592953,1370420.790155892],[1080166.085252136,1364730.6023566956],[1080906.9364802265,1355787.3319769576],[1073720.7955809482,1345564.270850847],[1064831.6358898743,1340675.2347936863],[1054053.5310636873,1347860.640986776],[1035804.6789787747,1348855.0004473822],[1035985.6382213525,1357025.5859914646],[1044696.1265591905,1368518.329642639],[1039075.0251586053,1373076.956566402],[1033333.5701298714,1392293.3460430312],[1029978.8118886705,1390874.526799219],[1023153.5387528933,1380942.2065606527],[1030761.9442956528,1337908.5547801687],[1025197.2965512894,1325337.1770521542],[1017869.0358462833,1319734.322902382],[1018120.9181281417,1298763.4727410907],[981564.6000414861,1266297.9804039027],[969386.5118875048,1267038.83885142],[963342.9650030548,1288195.520842474],[964299.6288216643,1303351.642754038],[970839.567517097,1312921.1550499732],[967527.6247619061,1318791.7677664051],[963069.0826140738,1316828.3417361313],[963071.9299786425,1309044.5281668883],[954575.2098822198,1303798.3613288666],[942528.0248085068,1316832.3337554513],[946523.960072942,1337180.3443629337],[954370.5288836214,1339092.145975662],[957641.5788757931,1345904.011492556],[950663.7718742437,1352313.5131566492],[949166.1921448596,1370619.7421610337],[942059.4315601892,1380554.2803582947],[919055.5788807935,1392382.282146581],[917632.558870442,1398523.4216208667],[912476.4221330255,1398598.585363532]]],[[[768026.668461738,1531179.5166044924],[769166.6475498322,1529498.4481994507],[767860.9817027793,1530214.3809496327],[768026.668461738,1531179.5166044924]]],[[[804751.3926427314,1575456.6500394917],[805391.9987498685,1576581.1477544196],[808102.683495422,1575348.2502434468],[804911.9703693654,1574697.34904534],[804751.3926427314,1575456.6500394917]]],[[[817320.8441244859,1616986.5581070096],[818084.750645816,1618473.6929895817],[819601.9945472281,1618130.0247282279],[817320.8441244859,1616986.5581070096]]],[[[835230.8214997734,1633213.2311863906],[835936.4734438622,1640208.5932636228],[839990.7087018607,1636620.579901208],[835230.8214997734,1633213.2311863906]]]]}},{"type":"Feature","properties":{"zona":"INS","nombre":"Insular","etq_x":208289.7,"etq_y":1979985.4},"geometry":{"type":"MultiPolygon","coordinates":[[[[165298.65722029936,1885415.1013249175],[169095.88565440616,1896777.7072791937],[165853.2959009551,1884066.811587783],[165298.65722029936,1885415.1013249175]]],[[[207435.3719675413,1977077.912978],[208595.65970249253,1983838.7577558444],[209854.7027937756,1982892.8619241652],[207435.3719675413,1977077.912978]]],[[[207010.04404341127,1983917.5391697143],[208329.86488086323,1984766.1206085593],[208104.24538267078,1983493.3918914706],[207010.04404341127,1983917.5391697143]]]]}},{"type":"Feature","properties":{"zona":"ORIN","nombre":"Orinoquía","etq_x":1403562.2,"etq_y":974098.0},"geometry":{"type":"Polygon","coordinates":[[[1347691.9045626977,806220.7067894512],[1321728.7553410078,813309.4338171696],[1317363.612392535,808989.5397359723],[1310283.045123877,809294.7687393281],[1306837.90189913,815559.2101462861],[1303426.0741277428,808148.9384079789],[1302313.4076735117,811704.4535709586],[1298518.5519713983,806865.7705890149],[1290643.1142492746,812616.92879727],[1289974.4341601117,807531.6383111004],[1277523.109166001,809753.15462106],[1278333.9511433416,806678.0429491984],[1270342.5878693655,803696.1106895506],[1267418.4435631158,804335.2093516361],[1268917.0111089055,809385.7738500107],[1264301.3328649597,805960.6461248867],[1257354.418152293,812321.6899131679],[1255461.9359759171,803533.083737943],[1254667.8223927673,809052.8672145437],[1250654.2383808233,810297.101376723],[1247580.8860824332,809399.36771668],[1250885.7959504528,809102.2837407694],[1250071.1982826984,805666.5594056409],[1232964.9210709068,801688.3729139409],[1222227.3751659268,804021.9735121115],[1215992.5201581554,811353.5401881908],[1208342.5929370648,808534.0128190038],[1209727.5307799005,798499.9431331812],[1202309.026445548,804197.9322216463],[1200350.1826441584,798978.5283369524],[1195419.6770739725,801436.9897796607],[1185902.6591783527,793266.9064428676],[1179153.563644037,794187.6223871396],[1178740.0600083428,789217.4391163912],[1171540.9669476934,790714.2384053257],[1165602.491526223,777462.8199289991],[1162623.9612064413,782208.3250868546],[1158653.7710369,776222.2461807713],[1155119.8886873745,781858.3444884067],[1148156.9069812007,775904.6690591328],[1139720.5113286457,780637.8671384032],[1124866.1554875928,770144.6851336915],[1127219.8329901143,764342.6612884701],[1123934.0111244647,766027.9910363723],[1123784.0855126316,762632.6374284179],[1116144.1219161705,758492.8347161349],[1112569.1409651232,760337.7451842267],[1107698.0425006344,755084.2036277534],[1106033.0015856298,758527.1875723774],[1101823.0784674527,753337.662607129],[1101191.0411285716,757191.4382543802],[1095748.0415086802,757802.1703849265],[1090042.237178198,754961.4285358037],[1093146.7470786488,751530.329695836],[1082968.7675827702,752802.6694117212],[1080324.700496581,748815.039733205],[1080183.1810308439,753722.5726615735],[1077848.6039506202,748999.7300547493],[1073755.4648010514,752339.2249631595],[1071188.204316889,749092.3560519259],[1070704.7416066658,755797.3491368787],[1070146.4832831156,750786.9785404997],[1064199.0128122799,752623.7233311831],[1062998.3303750781,749781.5158449288],[1061147.6284490675,755789.6804485616],[1056261.705586505,752195.5199216661],[1054765.564028073,756053.7830688221],[1051313.0497973722,754726.3016142056],[1049931.2136301482,745702.622088383],[1046859.1910188851,745543.6477315669],[1046595.971959804,670296.8985066009],[1024394.3252568396,675134.9306671913],[1014848.682422776,673708.817585593],[1010691.2652760037,668884.1328743605],[1008672.126184593,675087.7403990142],[998553.2610187242,673383.1683840243],[996128.6928613973,679317.5050463474],[985712.4240294764,681369.9607439215],[984661.1952132981,687116.3614425289],[978529.2876552668,685664.5362668801],[945800.000310473,696250.7499589832],[940820.0013269696,720755.706132953],[942980.5438762768,734543.3920157673],[935491.1743179479,736384.3588839227],[933357.3359380728,744417.6446910608],[927123.1631000122,743120.6021128257],[927792.6056863386,752241.7356566845],[936244.2948475307,767722.5614150324],[932353.1718560884,773287.2925286068],[942980.5484568358,785881.1484970755],[937625.0173382664,790818.2670774265],[939968.0622536163,795671.7208844033],[933357.3284699462,811361.7418504526],[923483.0778703241,809897.3395632879],[920261.3974654686,816131.5099289306],[904782.0030867154,813210.6029777142],[934118.7664336832,845709.3106095166],[940210.3035567767,859567.5726260822],[938116.3345905595,875386.543606747],[965005.8639944316,908896.5202597502],[975657.9246122789,914077.0205608505],[973182.4785457983,920676.9588624726],[984395.4881426989,934979.5613538276],[994340.7899685145,934128.0084051336],[1005925.6957278935,945341.3545749687],[1011796.835486126,944808.744202803],[1029605.1564375767,956448.9117222724],[1037273.4877695133,956220.6937046701],[1029448.8433278109,978573.6729886363],[1040462.8814766986,990850.7705084736],[1050783.3920399977,996021.6918641625],[1055003.4233578374,994221.4096421552],[1052537.889737291,985124.0044474478],[1061200.998927211,966546.1482651514],[1067673.6260553976,964881.8276036666],[1080648.713761619,969622.3952547477],[1097030.6100177793,964403.5452919154],[1104476.152479775,957925.9051458552],[1114366.4523602226,1016564.8181274373],[1111734.5813513715,1026457.7066932702],[1117327.0715841001,1044914.0518413049],[1122561.4027104229,1042087.2605117279],[1130221.1090327397,1052372.9576447704],[1122423.8658502507,1061257.8511547586],[1133009.135784555,1084529.2313719853],[1141951.0335792475,1088501.4993320298],[1152667.03977047,1075067.9471351348],[1165962.1105457756,1083841.9501754942],[1183970.2228258748,1107645.3964123353],[1192080.289150215,1100992.909231036],[1199078.9875242412,1111926.5667000453],[1200960.8902603458,1118970.4748064114],[1197013.6970590237,1121021.3960345695],[1201819.410507374,1132688.348101099],[1186619.6405890563,1136010.2821380063],[1194188.195388341,1143057.8224652263],[1189515.5958873953,1159644.9579940573],[1194858.3543698473,1164320.6370233046],[1189109.5961077178,1164483.7373868674],[1188610.5640896147,1172184.7264136067],[1183604.6229094758,1176005.2759576582],[1185605.5653720926,1185711.7238178917],[1200972.1045169518,1203308.2728115888],[1215773.9452010605,1212120.4483803434],[1218896.3972129428,1238176.0544266813],[1224130.2450452258,1240924.7257014085],[1235567.2067689686,1267557.5998126261],[1257629.808927343,1273740.4551700822],[1262205.2117924104,1270081.5075922492],[1275161.3015046502,1272664.9659779468],[1275122.3254608214,1268275.3815600453],[1325827.922124907,1270496.3582966707],[1327860.9065534135,1265745.4633956712],[1337769.960473228,1264077.367575041],[1349226.6880512133,1272872.0832520905],[1374740.8726246078,1278742.0150147912],[1379779.940616485,1274833.6959048524],[1389245.9839964565,1276073.5828921285],[1395285.1358749603,1267958.491697154],[1403169.5917494616,1268198.3006489428],[1415271.0595716564,1260234.6290350484],[1437881.1689538788,1265422.2810549552],[1514945.7104814698,1169384.1011900571],[1524723.4808013516,1173039.6195519886],[1528468.5694423704,1167378.0457302902],[1536282.1079108668,1166435.6146551662],[1557512.9491036856,1182412.4447644039],[1602246.0776396184,1172574.8630028465],[1623972.1709972364,1179309.6514963666],[1639749.652822447,1176729.481289237],[1658037.3449800843,1184234.1219411343],[1670798.1752982107,1180757.8104482153],[1694811.5968230986,1195299.9852741656],[1724150.4472866752,1189207.2783433234],[1733193.7567002699,1182979.4946097266],[1730219.9252543468,1174212.8497458547],[1739823.9693808288,1159117.2365054144],[1719199.6354938445,1140387.230325816],[1714847.423281738,1123283.0791154488],[1719361.6606816296,1108762.2400822106],[1716535.5279488834,1101148.6906660013],[1691698.3277593083,1081751.1608983756],[1694613.1538698343,1069785.4802961212],[1691351.9880119166,1062977.2214009794],[1696833.4448186697,1053994.9515139868],[1691646.6316909418,995063.43013917],[1701130.7411381472,983385.8183320242],[1698484.0118540146,963073.9191753245],[1707623.3556250643,940829.2944673576],[1685945.812919804,926314.031988167],[1683512.1530681453,932349.7527859224],[1673318.7935961098,934045.5704594187],[1672448.0707297213,937733.4557604726],[1667603.7063043672,929483.7405796471],[1667057.936575361,934371.200254787],[1661633.4565996977,930285.6518304383],[1661187.84225602,936260.9161032723],[1653294.244024803,935899.3732428777],[1652880.6291099715,932089.0240589317],[1637929.338285126,935467.0123963087],[1637522.6695316294,927793.9702428725],[1627435.8784533988,926259.8990293655],[1632098.5064213881,919534.7662935628],[1626746.1900928747,923400.6221916373],[1626951.7591442596,918415.6970913816],[1618995.0954100431,916365.2947808848],[1619505.2541915812,911534.7769310938],[1612409.4112612423,915694.8273158357],[1614880.0196802388,909792.4588076929],[1601457.2833871925,915016.3915066927],[1603924.413469828,909495.1809682674],[1591786.9584396053,911703.1139513834],[1587442.8588046688,904866.3742815402],[1581340.7381486879,906941.3656190068],[1583646.6574600702,899136.8094540164],[1580047.95565758,903309.5435658335],[1573448.3391008233,900979.4618418269],[1572090.5963323007,907247.9841211451],[1571459.3510057577,900568.5348952516],[1565443.9405948767,901796.9206563557],[1558392.131223807,895492.5229020442],[1551667.8233408432,899809.7422699308],[1544248.609502411,894901.3470384245],[1545908.3640090197,899416.6159545155],[1541755.9221476272,902720.9432839089],[1538749.69810696,899472.5447542187],[1533288.6092703082,905164.7462045543],[1532063.2879737923,896132.7792596165],[1530885.0635600127,904166.0153014122],[1523541.4218179008,898383.7169590226],[1518069.9325587978,898184.0088415161],[1514254.883476933,903295.6054632989],[1509907.8019848235,896678.4909994995],[1508533.806743082,899731.1637486182],[1499004.8471948828,900138.776990752],[1499009.884753536,887558.9795240964],[1497081.669175813,890647.1034758774],[1494858.273304124,887595.7977236159],[1491291.0045169634,889478.7729496207],[1487203.1855200094,884252.7564636267],[1486267.528523778,887934.5678278534],[1482431.9307081879,890044.3407531298],[1485209.8612864935,885079.3953169965],[1477588.9277424994,886810.640457728],[1475819.395896121,880665.6466759708],[1473479.5236146585,886221.6011905066],[1470883.3064806163,885164.7663907444],[1473922.233891676,877237.038411924],[1465203.2375661535,883709.4645696442],[1467947.7988889639,872987.7603201148],[1458394.3041100102,875216.196671088],[1459449.0071621535,867906.6335982825],[1452985.0316928343,865542.5475729362],[1450066.1201809251,870678.3791360783],[1439502.8557579156,868649.5355108144],[1434324.6029331319,863006.3803192215],[1441289.618015061,857126.6651264956],[1436021.246631162,854655.3518397148],[1439209.095198914,846328.1695645056],[1434049.0978873868,850354.6294031232],[1435200.6567806434,844280.1138812923],[1429719.8787643034,847260.7914414811],[1430556.9712557069,843331.7629525581],[1426061.151494752,843808.896108913],[1422283.2176329026,834210.2893777161],[1417859.282972511,833320.7661209438],[1425351.527744234,829177.5335795478],[1420029.5281310189,827961.9754671016],[1422716.621527618,816876.4607684084],[1414317.8460286935,814758.4799195845],[1414120.3440693845,807899.5025073576],[1398786.4801632143,803434.1996842887],[1398336.706523906,800421.8855708677],[1388536.8108899524,806508.649891244],[1384422.2691197384,801235.0419880116],[1380415.0903810887,808155.6647743335],[1382411.960250243,802102.8438976734],[1374602.565427292,794910.4385103238],[1373389.7476298094,801193.5373519452],[1363448.938596986,797376.8897421402],[1362543.560117893,803289.8698294382],[1357077.9202730246,799125.5729744356],[1349855.8170113692,808277.1986694892],[1347975.1605713647,800382.8554876295],[1347691.9045626977,806220.7067894512]]]}},{"type":"Feature","properties":{"zona":"PACF","nombre":"Pacífico","etq_x":720685.8,"etq_y":993454.5},"geometry":{"type":"MultiPolygon","coordinates":[[[[471359.036354095,653819.829872502],[470173.8230083664,652706.8750123102],[470013.078860302,653323.7504696976],[471912.327345327,654582.398932432],[471359.036354095,653819.829872502]]],[[[687200.1296210187,643658.778436258],[683212.7576692265,632896.9352849489],[677406.8033302343,638090.2993990683],[660978.4392019517,626353.8614108051],[665049.980268747,622508.0728084181],[664493.063616293,610378.5452652699],[671613.9886173566,603858.1092595861],[661354.2830876748,591487.9588164985],[663222.5582790377,584114.1026522616],[658956.3734573786,582554.7077593035],[653725.320420082,561642.6617373986],[661458.7238927663,557426.7554730548],[664709.2530154443,535676.3491786122],[642475.2159337618,531994.0139221901],[631161.4781977881,534702.9939673191],[626511.339080594,540364.3766929973],[615840.0810386983,536215.6857248445],[621091.2442209064,564386.8408000781],[612133.4591144265,563805.2939783235],[600275.1680433773,569906.091288723],[596743.4046650042,573931.6826604689],[600453.014612529,582367.0978899428],[595014.3340391647,586037.9385797265],[580598.0396225919,580660.9963756122],[570169.2813896588,582246.6132956727],[550593.45590832,595108.038801372],[542436.5456804777,595664.0744016825],[540043.3891312582,602874.7883481015],[531632.8916835473,608834.8365604178],[535072.3258821387,613670.0534877197],[528445.6974875892,623840.4153986766],[515600.04481446947,618045.1051673165],[514228.17749916646,624193.7523082028],[505542.51381099643,623461.5456426749],[501576.21596292185,630312.538526132],[494009.84023900377,630258.9765216499],[474697.70096061146,648140.872478337],[475653.64250955393,652332.7941979545],[471465.8861305327,653933.0580612877],[473941.4098398576,656584.3159803194],[468124.5752577346,655708.7833847685],[465947.2785456246,664364.1657882999],[462292.60400306433,662902.111962963],[452470.9027419983,669813.5906970368],[450704.3785680941,675137.6717964304],[456565.72761006956,678534.5132695838],[459674.75450939895,684591.6908516462],[465977.3668317415,690674.8191666114],[470408.2345243073,693573.0289649311],[478279.99984648754,694208.4645961098],[477935.81813323195,692335.7689506994],[482228.4310837717,687327.7302653816],[479626.40351667214,685126.5883568001],[482090.26187456865,684474.8696838182],[483248.8598987548,690757.7807467808],[486611.3702593123,685822.8329465007],[490622.29269088083,690684.1863142384],[496309.4214356403,690586.8911070332],[495988.69303357217,685357.7598215167],[501411.55645333114,686671.8792480663],[503652.89896702557,697880.8204591814],[501584.2806259679,702567.6648838788],[496651.71512700187,701813.9526955406],[496185.51217509015,712928.8263571719],[492232.06348191266,714975.9877421142],[488316.1456534131,710952.6192288602],[488306.23060666345,718734.4144235553],[491148.6640863646,719015.5442816786],[487524.19264618325,720211.9494238724],[486559.2720170951,725489.3475622237],[489708.639426309,724475.9095785264],[484862.03627828916,726354.1803545915],[483984.2018045131,732864.3168835919],[490359.2390139277,741655.7086918931],[489097.81136903126,744168.7301845199],[494742.87251295586,752280.5084638884],[494445.0959231113,755708.6890022904],[513425.48589263746,779498.4438315276],[526403.2380481416,786176.20686438],[528778.0803404495,778739.6456292826],[531569.9760285232,780553.0453887946],[529661.4947826732,786648.740972274],[536167.2386948814,787267.00776454],[542699.4263626344,778141.6882499876],[540109.1523580677,787293.9546097486],[546664.6783171769,789249.7229765754],[549877.3806662885,782589.0712227573],[554480.964095562,783983.4920674058],[555635.0180835201,776570.8748747087],[557836.8305740186,775065.1059375523],[560589.3555043829,777607.3768518025],[557139.0221446545,781991.2352040207],[559872.4318942344,785525.2626982328],[566712.6653271627,786763.5620550654],[575418.5381371749,780919.7428747466],[573804.9553528185,788842.3886107656],[581092.5066903137,791373.0341890166],[585237.8837533813,784179.1948166618],[588872.9559918145,785598.0020838995],[586180.6841703855,796724.6132855371],[593100.1430175186,798823.6095980479],[589859.6292768068,801471.3179888269],[596415.3292861866,808941.0090035177],[600723.6136081172,807967.9495249658],[597090.2800483076,812720.7819608776],[601327.5817866893,821682.0509999099],[596658.4976092456,820666.2552187431],[600726.9850147686,829200.360891302],[620229.9827198181,858014.4401553597],[629057.5929811238,863665.239084342],[641513.2513957309,886630.9659966157],[649190.6604494685,887906.768409608],[654314.3059930712,896554.4258256751],[658814.063236928,894845.0911867465],[656004.4384516138,901274.753557058],[654152.4496528846,899058.2365181724],[653561.3323343721,906847.8199033577],[659860.1305620009,907220.6458969368],[658830.2037594633,913582.0516156252],[661570.5077498521,911804.9928248265],[670257.4771726652,923892.9750273911],[663382.0287746914,924498.8259846665],[655112.7106899535,916052.5846690773],[643971.0107091283,916987.562875537],[641435.8563370984,920842.5600861344],[644691.2948888144,923322.1682542792],[639613.3710490405,923955.1726745738],[640021.8456981878,929411.5032686791],[644930.795030071,933264.641595059],[645781.9061113093,929283.1253365896],[649208.758164295,931305.6016683856],[654925.1242051995,940571.9986827485],[643970.5667604667,941669.0704224932],[635388.0400558864,926679.7657412321],[626747.727302869,936059.1019805614],[627194.1185393485,943457.4571157089],[616855.2303547002,949041.9536348487],[618203.8262340595,965782.2735560351],[621743.562077939,967261.9671737091],[620170.369693859,964353.2853363629],[620986.1886715944,962992.6312325454],[629562.1476064861,967238.580004378],[626610.8801625841,969253.1731956719],[638324.6453596603,982486.2491957137],[641828.6277791352,1009795.5607239924],[639282.8843616839,1016290.1368324148],[643892.2744857367,1016798.0833565718],[637078.6742718598,1021544.0639729674],[639308.5355850273,1024308.0230124417],[635464.6102797445,1030391.9361413585],[638374.1498664832,1029645.6966543188],[634847.033902889,1037897.1479292109],[637905.0564219267,1041887.2784442394],[639473.591667247,1040757.5351379965],[640001.4531184621,1041028.5392688165],[639987.5792519228,1041370.8485554209],[637991.8641555496,1042144.928465324],[635050.0875219789,1040093.7340082492],[634023.4583088977,1041178.8017442828],[632927.1307029362,1062353.2871293959],[633626.120360001,1062438.2877056075],[633738.412695091,1060744.6016954512],[635389.9701516507,1059030.2743876965],[633967.9823200344,1062185.6161620102],[636363.1728912282,1060612.5847724148],[636990.8322462119,1060426.5851492907],[636335.3181140559,1061025.8723233927],[638760.3264384012,1060718.3088157638],[639689.4544637743,1061944.1397287678],[633944.0342049808,1065490.5189359682],[638626.9520576592,1067195.3164757816],[638143.3004235072,1068366.3721421396],[631902.307010435,1064323.6892040246],[632778.3938530223,1077562.7194035347],[634352.8827871516,1071681.4146919495],[637751.0446327571,1073018.2877945858],[634686.8726966942,1075219.80849552],[635881.1252561589,1082037.859098589],[631048.5191313522,1081705.7322278584],[633971.7852933377,1083752.7805909377],[630200.6948969747,1090349.7251235042],[633236.6906679163,1088661.6157124292],[632761.4573843705,1094541.6846007565],[628879.2488129374,1093504.1006773445],[624722.0527424772,1099873.7436961317],[616132.2200445465,1098960.1781058926],[621974.6500220378,1112989.3369869224],[638655.3730176965,1114077.3325236125],[646325.5712847174,1123620.5486122991],[647814.2161476298,1132152.2330988455],[649263.0782975559,1127784.795521769],[650050.7990295563,1130008.8268029722],[642166.9297376655,1142262.3629728737],[637761.3581476198,1160616.7105057288],[636067.4255367018,1162887.7196673835],[637404.8738168576,1155762.8455397268],[622909.5571778499,1177648.856690004],[624047.6019263881,1189231.7555414385],[632634.0410478672,1182483.4812426653],[635510.9672348197,1195888.7446262005],[630880.114948184,1198892.7754836457],[636816.9234328645,1199966.7724917522],[634907.8348015603,1203422.9090091286],[640615.1366119494,1217223.4729915478],[632354.6664720401,1225113.8862243071],[631741.7036487217,1232448.104333823],[622071.5655683214,1234406.7229057015],[618349.9415185929,1228249.5215624915],[611794.2843859236,1247095.9910237235],[603159.3811662176,1253517.7460182956],[599100.7914795657,1249888.230011756],[599576.3474395273,1260644.1763871177],[604249.8144815271,1263461.2502929515],[601626.6018018684,1271941.6411326625],[578247.4992420436,1292252.8121213736],[586817.1905324012,1319834.5798948565],[593863.1189784,1318555.898768783],[599758.2973206951,1323544.5279994973],[594646.7063099458,1335400.555278566],[596940.3217642843,1344967.5592945898],[606111.6384316958,1339507.9181077916],[609651.614925406,1327311.464274205],[614864.7904797613,1323515.8921653568],[620264.3982436747,1331776.24946287],[623063.4622035031,1330023.5162318624],[633423.2994593937,1352690.9505757461],[639695.2690671855,1351894.5748103024],[637071.3004397935,1359088.9233489104],[640623.7193253464,1366060.3967359045],[657879.582209459,1368567.4307664325],[660697.7189479223,1369864.6140206517],[657890.8431892914,1373174.156351687],[662256.1552415433,1372603.4348630172],[651740.352290866,1380588.6146735463],[653684.0738080323,1387316.8555731508],[650095.7519809986,1398506.1243325924],[639280.5027297119,1410844.2206777546],[634187.9921288476,1429091.6692899365],[628692.6469136338,1430250.107295694],[629085.6275938132,1439419.027707134],[634772.0966815078,1443188.0067004005],[633135.8127492359,1449403.6125290764],[637331.3173109193,1448521.9660931292],[637678.7403532242,1452539.0335229672],[638748.396621915,1452683.6600873747],[650608.6449904791,1430133.9438305972],[663624.7254093017,1423304.3624818043],[673804.2536028102,1405586.5107505913],[680089.6320704699,1405763.5204361805],[683323.0051657286,1396417.113086827],[679277.3430953147,1389253.6756454087],[682723.6926546013,1382171.6906678367],[678322.8114300426,1380171.2493479636],[674152.2049286222,1364322.5796547304],[663596.5878904667,1358930.8487410897],[663942.4866135637,1354239.998969192],[678814.4220955798,1336782.2368919323],[696162.0408595236,1324433.173415189],[708467.9463298388,1307341.9907897313],[728778.6798332132,1295095.6886109237],[734214.1479840949,1281257.9743977827],[731427.9833483722,1281877.248546848],[724280.9536503117,1264159.4652122546],[712788.7466674692,1269712.0687477416],[695234.9981658055,1266639.2080032332],[699964.5732691905,1252051.9986759115],[695588.8123624795,1250987.695919185],[696855.2455124534,1248443.3449006833],[690355.0479094505,1250339.8833945068],[680028.5584912619,1246008.0880008517],[684127.2556864598,1234813.1768077095],[680726.0543530048,1231555.115784986],[684661.5853342768,1227945.3964753468],[687803.1206874426,1230253.4161113983],[686667.5409708443,1225829.5887177165],[692346.6736559551,1224577.568394148],[688516.4805607734,1218879.9509608303],[692966.6279356955,1218136.2751293841],[696528.9771344382,1209961.0764367427],[698856.9063120983,1212141.8950462304],[702377.0591969542,1208855.4764681812],[699256.1930891937,1205226.9665282168],[702862.5830070591,1203941.4921061604],[699238.9719413589,1202617.8717084222],[702511.3521629419,1199108.290480327],[699765.2420925973,1191606.0840424905],[707649.5505389799,1175009.3008762815],[722563.1173377594,1177285.549598349],[740676.5137851553,1174134.9256740431],[760703.139299785,1178919.320271302],[768801.4307882155,1156456.6506151247],[774745.1604498245,1157966.3075455572],[779721.2278897493,1153202.4086531738],[776060.4393976163,1138183.6669411303],[779688.1038252681,1128415.3852313564],[777358.736199565,1121192.8636503671],[786401.3076404724,1113779.1594895697],[786229.8335753254,1108675.5120502934],[778651.8091382091,1105471.0184642987],[777264.5362801352,1094279.5429283315],[766543.5842824121,1090524.3195635458],[763413.0906582027,1083470.7860319011],[772487.189541402,1064925.5524204266],[780031.8861166236,1059388.3640833627],[776082.8431530951,1048817.9995255815],[781250.686360653,1045864.4733963162],[787960.709396915,1030948.0584735596],[797717.6514751101,1028808.6769997474],[794630.4102551237,1019097.6915108266],[803263.0461918085,1020443.7115796829],[802604.6601981489,1014772.48444446],[818383.7951271683,1013126.2502443354],[819412.467580551,1006825.2389199845],[806008.6790941944,1007676.7490669547],[801701.1170339731,1002359.640032455],[801577.9940930307,984549.3271967744],[798191.8125161459,980404.6133704511],[807461.6640546627,978810.5737999094],[809980.6681274357,973416.6450142469],[804286.0529365216,945538.4898880434],[815524.9544622749,940185.8214183531],[787075.285639516,894215.1667679372],[788010.9750958954,885648.4022011906],[779704.3755717396,862839.7638378204],[781906.3716385092,851437.9438629644],[776259.8798372702,845935.6384946217],[778092.9385045504,837353.4210820545],[774190.1698013828,835231.3417495409],[783742.271246256,824064.7731656755],[784027.8193642738,815435.310818475],[802088.8782970952,799976.5611560575],[813626.6912024596,795196.6404148384],[804176.2063719648,775548.3939985062],[806838.196112343,766547.5592877442],[798851.4622794186,760405.837892534],[788606.2441277192,768696.9989834812],[781916.516970281,757468.7011640072],[774629.3433781476,758050.691660175],[769800.5640382209,745527.5647664536],[772635.2189969111,737898.242162769],[769036.7272616551,735075.3861017907],[762831.8858303048,735091.910363365],[755107.8567653577,743604.1798042178],[744513.7776138934,743981.2032186127],[737722.7892814155,733856.5644857096],[738231.9385682481,726575.267650956],[734142.4139772644,724295.1391761061],[724201.8855590444,728330.1182226684],[720389.7846096447,724035.5969673716],[721995.0547219231,714515.657847368],[716570.3050657643,710242.2523575939],[723881.9644220623,695605.7140484711],[737851.219174786,690089.5336165614],[738822.7254502014,682463.851163802],[744401.8098770422,685365.1984238881],[743321.4780994891,675980.6289970936],[761868.4253908126,676023.1204160005],[763922.871459891,666605.5643845065],[768382.5908668103,666355.8224994866],[762013.9168533939,638028.8144017211],[752309.932834752,628711.1820044466],[752376.7124479685,621900.0712294087],[757142.0491892672,616123.1590376247],[772265.0222963223,613462.9893346436],[777595.4535131558,605364.4499285778],[766662.7505717436,605687.3879213245],[759731.6847851695,598501.2205585623],[738793.6710880162,598034.7283655085],[725142.931893893,606661.3276923331],[722039.5563700799,645357.3434078421],[711705.6422726305,654177.8800810458],[687200.1296210187,643658.778436258]]],[[[481790.3843866955,694860.0941483283],[480789.581859517,692275.187971498],[478963.6111177294,692273.1795008502],[478833.931388434,693570.8577273169],[481790.3843866955,694860.0941483283]]],[[[492886.0308540394,750319.8030723787],[494226.7307373388,753095.1270830191],[492975.1974000311,750051.233368609],[492886.0308540394,750319.8030723787]]],[[[558171.638442591,778606.5075295956],[558017.2462948567,775819.6637512613],[555977.3929452974,777541.3329217695],[558171.638442591,778606.5075295956]]],[[[594645.3025444653,1277007.2616836447],[598635.1785011652,1274345.1354258652],[601026.1438528406,1271457.6097309561],[600141.9053359523,1271645.082522082],[594645.3025444653,1277007.2616836447]]]]}}]}